[{"OBJECT_NAME":"STARLINK-31650","OBJECT_ID":"2024-073B","EPOCH":"2026-03-09T02:17:41.786592","MEAN_MOTION":15.27567219,"ECCENTRICITY":0.00011206,"INCLINATION":43.0062,"RA_OF_ASC_NODE":321.4729,"ARG_OF_PERICENTER":14.9251,"MEAN_ANOMALY":345.1633,"EPHEMERIS_TYPE":0,"CLASSIFICATION_TYPE":"U","NORAD_CAT_ID":59512,"ELEMENT_SET_NO":999,"REV_AT_EPOCH":10608,"BSTAR":0.00016941294,"MEAN_MOTION_DOT":4.401e-5,"MEAN_MOTION_DDOT":0},{"OBJECT_NAME":"FLOCK 4G-24","OBJECT_ID":"2025-009AE","EPOCH":"2026-03-09T17:24:07.838208","MEAN_MOTION":15.27784978,"ECCENTRICITY":0.0001802,"INCLINATION":97.4061,"RA_OF_ASC_NODE":151.514,"ARG_OF_PERICENTER":280.2808,"MEAN_ANOMALY":79.8228,"EPHEMERIS_TYPE":0,"CLASSIFICATION_TYPE":"U","NORAD_CAT_ID":62637,"ELEMENT_SET_NO":999,"REV_AT_EPOCH":6373,"BSTAR":0.00038996067,"MEAN_MOTION_DOT":0.00010513,"MEAN_MOTION_DDOT":0}]
